{"type": "FeatureCollection", "features": [ {"type": "Feature", "properties": {"norad_id": 28659, "name": "DIRECTV 8", "group": "intelsat", "lat": -0.027172795609744203, "lon": -73.31656676993533, "alt_km": 35773.6234970891, "timestamp": "2025-12-10T21:43:21.754099+00:00", "meta": {"OBJECT_NAME": "DIRECTV 8", "OBJECT_ID": "2005-019A", "EPOCH": "2025-12-10T07:31:28.465824", "MEAN_MOTION": 1.00272201, "ECCENTRICITY": 0.0003149, "INCLINATION": 0.0136, "RA_OF_ASC_NODE": 25.1148, "ARG_OF_PERICENTER": 239.1282, "MEAN_ANOMALY": 168.8738, "EPHEMERIS_TYPE": 0, "CLASSIFICATION_TYPE": "U", "NORAD_CAT_ID": 28659, "ELEMENT_SET_NO": 999, "REV_AT_EPOCH": 7517, "BSTAR": 0, "MEAN_MOTION_DOT": 5e-08, "MEAN_MOTION_DDOT": 0}, "tle": {"line1": "1 28659U 05019A   25344.31352391  .00000005  00000+0  00000+0 0  9993", "line2": "2 28659   0.0136  25.1148 0003149 239.1282 168.8738  1.00272201 75173"}}, "geometry": {"type": "Point", "coordinates": [-73.31656676993533, -0.027172795609744203]}}, {"type": "Feature", "properties": {"norad_id": 28702, "name": "GALAXY 28 (G-28)", "group": "intelsat", "lat": -2.334910535078676, "lon": -42.97926119574914, "alt_km": 35780.08296316632, "timestamp": "2025-12-10T21:43:21.754111+00:00", "meta": {"OBJECT_NAME": "GALAXY 28 (G-28)", "OBJECT_ID": "2005-022A", "EPOCH": "2025-12-10T07:19:38.654400", "MEAN_MOTION": 1.0027093, "ECCENTRICITY": 0.00027018, "INCLINATION": 2.8124, "RA_OF_ASC_NODE": 81.3102, "ARG_OF_PERICENTER": 180.8812, "MEAN_ANOMALY": 198.3166, "EPHEMERIS_TYPE": 0, "CLASSIFICATION_TYPE": "U", "NORAD_CAT_ID": 28702, "ELEMENT_SET_NO": 999, "REV_AT_EPOCH": 5008, "BSTAR": 0, "MEAN_MOTION_DOT": -1.84e-06, "MEAN_MOTION_DDOT": 0}, "tle": {"line1": "1 28702U 05022A   25344.30530850 -.00000184  00000+0  00000+0 0  9992", "line2": "2 28702   2.8124  81.3102 0002701 180.8812 198.3166  1.00270930 50080"}}, "geometry": {"type": "Point", "coordinates": [-42.97926119574914, -2.334910535078676]}}, {"type": "Feature", "properties": {"norad_id": 29236, "name": "GALAXY 16 (G-16)", "group": "intelsat", "lat": -0.017658786631808143, "lon": -53.272087932314875, "alt_km": 35778.78922691924, "timestamp": "2025-12-10T21:43:21.754124+00:00", "meta": {"OBJECT_NAME": "GALAXY 16 (G-16)", "OBJECT_ID": "2006-023A", "EPOCH": "2025-12-10T10:30:13.310784", "MEAN_MOTION": 1.00272213, "ECCENTRICITY": 0.00027694, "INCLINATION": 0.0363, "RA_OF_ASC_NODE": 149.7861, "ARG_OF_PERICENTER": 104.7073, "MEAN_ANOMALY": 243.4661, "EPHEMERIS_TYPE": 0, "CLASSIFICATION_TYPE": "U", "NORAD_CAT_ID": 29236, "ELEMENT_SET_NO": 999, "REV_AT_EPOCH": 7108, "BSTAR": 0, "MEAN_MOTION_DOT": -1.23e-06, "MEAN_MOTION_DDOT": 0}, "tle": {"line1": "1 29236U 06023A   25344.43765406 -.00000123  00000+0  00000+0 0  9991", "line2": "2 29236   0.0363 149.7861 0002769 104.7073 243.4661  1.00272213 71088"}}, "geometry": {"type": "Point", "coordinates": [-53.272087932314875, -0.017658786631808143]}}, {"type": "Feature", "properties": {"norad_id": 29494, "name": "DIRECTV 9S", "group": "intelsat", "lat": -1.289448085123878, "lon": -55.491919816623046, "alt_km": 35776.53253503219, "timestamp": "2025-12-10T21:43:21.754138+00:00", "meta": {"OBJECT_NAME": "DIRECTV 9S", "OBJECT_ID": "2006-043A", "EPOCH": "2025-12-10T08:50:38.677344", "MEAN_MOTION": 1.00271482, "ECCENTRICITY": 0.00031271, "INCLINATION": 1.9343, "RA_OF_ASC_NODE": 83.234, "ARG_OF_PERICENTER": 179.142, "MEAN_ANOMALY": 208.4169, "EPHEMERIS_TYPE": 0, "CLASSIFICATION_TYPE": "U", "NORAD_CAT_ID": 29494, "ELEMENT_SET_NO": 999, "REV_AT_EPOCH": 4949, "BSTAR": 0, "MEAN_MOTION_DOT": -1.1e-06, "MEAN_MOTION_DDOT": 0}, "tle": {"line1": "1 29494U 06043A   25344.36850321 -.00000110  00000+0  00000+0 0  9998", "line2": "2 29494   1.9343  83.2340 0003127 179.1420 208.4169  1.00271482 49498"}}, "geometry": {"type": "Point", "coordinates": [-55.491919816623046, -1.289448085123878]}}, {"type": "Feature", "properties": {"norad_id": 31307, "name": "GALAXY 17 (G-17)", "group": "intelsat", "lat": -2.135380077804441, "lon": -39.231230377140946, "alt_km": 35779.8325973014, "timestamp": "2025-12-10T21:43:21.754152+00:00", "meta": {"OBJECT_NAME": "GALAXY 17 (G-17)", "OBJECT_ID": "2007-016B", "EPOCH": "2025-12-10T05:31:38.713152", "MEAN_MOTION": 1.00272548, "ECCENTRICITY": 0.00060079, "INCLINATION": 2.4939, "RA_OF_ASC_NODE": 82.3112, "ARG_OF_PERICENTER": 162.8235, "MEAN_ANOMALY": 191.995, "EPHEMERIS_TYPE": 0, "CLASSIFICATION_TYPE": "U", "NORAD_CAT_ID": 31307, "ELEMENT_SET_NO": 999, "REV_AT_EPOCH": 6790, "BSTAR": 0, "MEAN_MOTION_DOT": -2.03e-06, "MEAN_MOTION_DDOT": 0}, "tle": {"line1": "1 31307U 07016B   25344.23030918 -.00000203  00000+0  00000+0 0  9996", "line2": "2 31307   2.4939  82.3112 0006007 162.8235 191.9950  1.00272548 67905"}}, "geometry": {"type": "Point", "coordinates": [-39.231230377140946, -2.135380077804441]}}, {"type": "Feature", "properties": {"norad_id": 31862, "name": "DIRECTV 10", "group": "intelsat", "lat": -0.0005079781681339571, "lon": -57.06693460812345, "alt_km": 35786.03072787268, "timestamp": "2025-12-10T21:43:21.754165+00:00", "meta": {"OBJECT_NAME": "DIRECTV 10", "OBJECT_ID": "2007-032A", "EPOCH": "2025-12-10T08:12:19.171584", "MEAN_MOTION": 1.00271553, "ECCENTRICITY": 3.853e-05, "INCLINATION": 0.0087, "RA_OF_ASC_NODE": 98.9872, "ARG_OF_PERICENTER": 118.0776, "MEAN_ANOMALY": 242.5518, "EPHEMERIS_TYPE": 0, "CLASSIFICATION_TYPE": "U", "NORAD_CAT_ID": 31862, "ELEMENT_SET_NO": 999, "REV_AT_EPOCH": 4370, "BSTAR": 0, "MEAN_MOTION_DOT": -9.9e-07, "MEAN_MOTION_DDOT": 0}, "tle": {"line1": "1 31862U 07032A   25344.34188856 -.00000099  00000+0  00000+0 0  9990", "line2": "2 31862   0.0087  98.9872 0000385 118.0776 242.5518  1.00271553 43701"}}, "geometry": {"type": "Point", "coordinates": [-57.06693460812345, -0.0005079781681339571]}}, {"type": "Feature", "properties": {"norad_id": 32253, "name": "INTELSAT 11 (IS-11)", "group": "intelsat", "lat": -0.994850230788144, "lon": -80.49802006270775, "alt_km": 36100.60627375591, "timestamp": "2025-12-10T21:43:21.754176+00:00", "meta": {"OBJECT_NAME": "INTELSAT 11 (IS-11)", "OBJECT_ID": "2007-044B", "EPOCH": "2025-12-10T08:50:38.825088", "MEAN_MOTION": 0.99047863, "ECCENTRICITY": 0.00090387, "INCLINATION": 3.0743, "RA_OF_ASC_NODE": 81.0014, "ARG_OF_PERICENTER": 165.0456, "MEAN_ANOMALY": 202.0786, "EPHEMERIS_TYPE": 0, "CLASSIFICATION_TYPE": "U", "NORAD_CAT_ID": 32253, "ELEMENT_SET_NO": 999, "REV_AT_EPOCH": 6658, "BSTAR": 0, "MEAN_MOTION_DOT": 7.8e-07, "MEAN_MOTION_DDOT": 0}, "tle": {"line1": "1 32253U 07044B   25344.36850492  .00000078  00000+0  00000+0 0  9998", "line2": "2 32253   3.0743  81.0014 0009038 165.0456 202.0786  0.99047863 66581"}}, "geometry": {"type": "Point", "coordinates": [-80.49802006270775, -0.994850230788144]}}, {"type": "Feature", "properties": {"norad_id": 32388, "name": "HORIZONS-2", "group": "intelsat", "lat": -1.9803977319307198, "lon": -28.036837259970245, "alt_km": 35776.656673691774, "timestamp": "2025-12-10T21:43:21.754188+00:00", "meta": {"OBJECT_NAME": "HORIZONS-2", "OBJECT_ID": "2007-063B", "EPOCH": "2025-12-10T04:15:38.659392", "MEAN_MOTION": 1.00270369, "ECCENTRICITY": 0.00049966, "INCLINATION": 2.1151, "RA_OF_ASC_NODE": 82.986, "ARG_OF_PERICENTER": 187.7367, "MEAN_ANOMALY": 158.5607, "EPHEMERIS_TYPE": 0, "CLASSIFICATION_TYPE": "U", "NORAD_CAT_ID": 32388, "ELEMENT_SET_NO": 999, "REV_AT_EPOCH": 6591, "BSTAR": 0, "MEAN_MOTION_DOT": -2.5e-06, "MEAN_MOTION_DDOT": 0}, "tle": {"line1": "1 32388U 07063B   25344.17753078 -.00000250  00000+0  00000+0 0  9992", "line2": "2 32388   2.1151  82.9860 0004996 187.7367 158.5607  1.00270369 65917"}}, "geometry": {"type": "Point", "coordinates": [-28.036837259970245, -1.9803977319307198]}}, {"type": "Feature", "properties": {"norad_id": 32729, "name": "DIRECTV 11", "group": "intelsat", "lat": 0.00014207781347153178, "lon": -53.47963884965759, "alt_km": 35787.06753256669, "timestamp": "2025-12-10T21:43:21.754200+00:00", "meta": {"OBJECT_NAME": "DIRECTV 11", "OBJECT_ID": "2008-013A", "EPOCH": "2025-12-10T10:29:59.969760", "MEAN_MOTION": 1.00271438, "ECCENTRICITY": 3.933e-05, "INCLINATION": 0.018, "RA_OF_ASC_NODE": 174.7385, "ARG_OF_PERICENTER": 9.6314, "MEAN_ANOMALY": 313.349, "EPHEMERIS_TYPE": 0, "CLASSIFICATION_TYPE": "U", "NORAD_CAT_ID": 32729, "ELEMENT_SET_NO": 999, "REV_AT_EPOCH": 4370, "BSTAR": 0, "MEAN_MOTION_DOT": -1.22e-06, "MEAN_MOTION_DDOT": 0}, "tle": {"line1": "1 32729U 08013A   25344.43749965 -.00000122  00000+0  00000+0 0  9994", "line2": "2 32729   0.0180 174.7385 0000393   9.6314 313.3490  1.00271438 43700"}}, "geometry": {"type": "Point", "coordinates": [-53.47963884965759, 0.00014207781347153178]}}, {"type": "Feature", "properties": {"norad_id": 32951, "name": "GALAXY 18 (G-18)", "group": "intelsat", "lat": -0.02020089268307591, "lon": -77.2789981991853, "alt_km": 35773.249337326844, "timestamp": "2025-12-10T21:43:21.754212+00:00", "meta": {"OBJECT_NAME": "GALAXY 18 (G-18)", "OBJECT_ID": "2008-024A", "EPOCH": "2025-12-10T11:00:38.718144", "MEAN_MOTION": 1.00272933, "ECCENTRICITY": 0.0003129, "INCLINATION": 0.0166, "RA_OF_ASC_NODE": 310.7624, "ARG_OF_PERICENTER": 312.505, "MEAN_ANOMALY": 218.3239, "EPHEMERIS_TYPE": 0, "CLASSIFICATION_TYPE": "U", "NORAD_CAT_ID": 32951, "ELEMENT_SET_NO": 999, "REV_AT_EPOCH": 4396, "BSTAR": 0, "MEAN_MOTION_DOT": 2.9e-07, "MEAN_MOTION_DDOT": 0}, "tle": {"line1": "1 32951U 08024A   25344.45878146  .00000029  00000+0  00000+0 0  9994", "line2": "2 32951   0.0166 310.7624 0003129 312.5050 218.3239  1.00272933 43966"}}, "geometry": {"type": "Point", "coordinates": [-77.2789981991853, -0.02020089268307591]}}]}